NORAD_CAT_ID,OBJECT_NAME,OBJECT_TYPE,EPOCH,MEAN_MOTION,ECCENTRICITY,INCLINATION,RA_OF_ASC_NODE,ARG_OF_PERICENTER,MEAN_ANOMALY,BSTAR,MEAN_MOTION_DOT,MEAN_MOTION_DDOT,TLE_LINE0,TLE_LINE1,TLE_LINE2,SEMIMAJOR_AXIS,PERIOD,APOGEE,PERIGEE,DECAYED
53543.0,STARLINK-4297,PAYLOAD,2024-01-05 07:02:27,15.08837082,0.0001619,53.2181,30.3752,108.837,251.2798,7.1716e-05,8.53e-06,0.0,0 STARLINK-4297,1 53543U 22101S   24005.29337695  .00000853  00000-0  71716-4 0  9993,2 53543  53.2181  30.3752 0001619 108.8370 251.2798 15.08837082 77062,6917.889,95.438,540.874,538.634,0.0
53543.0,STARLINK-4297,PAYLOAD,2024-01-06 11:39:24,15.08838521,0.0001493,53.2176,25.0222,101.4518,258.6642,2.9581e-05,1.83e-06,0.0,0 STARLINK-4297,1 53543U 22101S   24006.48570015  .00000183  00000-0  29581-4 0  9999,2 53543  53.2176  25.0222 0001493 101.4518 258.6642 15.08838521 76553,6917.885,95.438,540.783,538.717,0.0
53543.0,STARLINK-4297,PAYLOAD,2024-01-07 09:54:47,15.0884544,0.0001451,53.2176,20.8583,99.0263,261.0893,0.00010137,1.326e-05,0.0,0 STARLINK-4297,1 53543U 22101S   24007.41305470  .00001326  00000-0  10137-3 0  9990,2 53543  53.2176  20.8583 0001451  99.0263 261.0893 15.08845440 77385,6917.864,95.437,540.733,538.725,0.0
53543.0,STARLINK-4297,PAYLOAD,2024-01-07 22:37:53,15.08836179,0.0001469,53.2177,18.4793,105.2054,254.91,3.981e-05,3.46e-06,0.0,0 STARLINK-4297,1 53543U 22101S   24007.94298185  .00000346  00000-0  39810-4 0  9993,2 53543  53.2177  18.4793 0001469 105.2054 254.9100 15.08836179 76772,6917.892,95.438,540.773,538.741,0.0
53543.0,STARLINK-4297,PAYLOAD,2024-01-08 09:45:35,15.08838647,0.0001534,53.2177,16.394,116.8267,243.2882,8.2046e-05,1.018e-05,0.0,0 STARLINK-4297,1 53543U 22101S   24008.40665907  .00001018  00000-0  82046-4 0  9991,2 53543  53.2177  16.3940 0001534 116.8267 243.2882 15.08838647 77535,6917.885,95.438,540.811,538.688,0.0
53543.0,STARLINK-4297,PAYLOAD,2024-01-09 06:25:35,15.08846104,0.0001552,53.2181,12.5282,114.0864,246.0291,7.7656e-05,9.48e-06,0.0,0 STARLINK-4297,1 53543U 22101S   24009.26777489  .00000948  00000-0  77656-4 0  9997,2 53543  53.2181  12.5282 0001552 114.0864 246.0291 15.08846104 76979,6917.862,95.437,540.8,538.653,0.0
53543.0,STARLINK-4297,PAYLOAD,2024-01-10 03:05:36,15.08840546,0.0001593,53.2186,8.6702,120.3688,239.7462,7.8989e-05,9.69e-06,0.0,0 STARLINK-4297,1 53543U 22101S   24010.12889774  .00000969  00000-0  78989-4 0  9998,2 53543  53.2186   8.6702 0001593 120.3688 239.7462 15.08840546 77105,6917.879,95.438,540.846,538.642,0.0
53543.0,STARLINK-4297,PAYLOAD,2024-01-10 06:16:22,15.08844427,0.0001529,53.2175,8.0742,109.3975,250.7182,0.000104,1.368e-05,0.0,0 STARLINK-4297,1 53543U 22101S   24010.26137503  .00001368  00000-0  10400-3 0  9996,2 53543  53.2175   8.0742 0001529 109.3975 250.7182 15.08844427 77818,6917.867,95.437,540.79,538.674,0.0
53543.0,STARLINK-4297,PAYLOAD,2024-01-11 09:17:56,15.08845567,0.0001446,53.2178,3.015,102.5969,257.5185,5.8744e-05,6.47e-06,0.0,0 STARLINK-4297,1 53543U 22101S   24011.38745586  .00000647  00000-0  58744-4 0  9999,2 53543  53.2178   3.0150 0001446 102.5969 257.5185 15.08845567 77291,6917.863,95.437,540.729,538.728,0.0
53543.0,STARLINK-4297,PAYLOAD,2024-01-12 05:57:56,15.08846775,0.0001714,53.2183,359.1499,116.2417,243.8752,6.2104e-05,7.01e-06,0.0,0 STARLINK-4297,1 53543U 22101S   24012.24857601  .00000701  00000-0  62104-4 0  9993,2 53543  53.2183 359.1499 0001714 116.2417 243.8752 15.08846775 78118,6917.86,95.437,540.91,538.539,0.0
53543.0,STARLINK-4297,PAYLOAD,2024-01-13 04:13:21,15.08836128,0.0001573,53.2179,354.9827,112.2647,247.8512,3.1135e-05,2.07e-06,0.0,0 STARLINK-4297,1 53543U 22101S   24013.17594616  .00000207  00000-0  31135-4 0  9991,2 53543  53.2179 354.9827 0001573 112.2647 247.8512 15.08836128 77562,6917.892,95.438,540.845,538.669,0.0
53543.0,STARLINK-4297,PAYLOAD,2024-01-14 07:14:55,15.08842147,0.0001432,53.2177,349.9335,103.3532,256.7619,7.2079e-05,8.59e-06,0.0,0 STARLINK-4297,1 53543U 22101S   24014.30202789  .00000859  00000-0  72079-4 0  9999,2 53543  53.2177 349.9335 0001432 103.3532 256.7619 15.08842147 77730,6917.874,95.437,540.729,538.748,0.0
53543.0,STARLINK-4297,PAYLOAD,2024-01-15 07:05:41,15.08853096,0.0001492,53.2172,345.4726,84.1237,275.9925,0.00031647,4.754e-05,0.0,0 STARLINK-4297,1 53543U 22101S   24015.29562369  .00004754  00000-0  31647-3 0  9994,2 53543  53.2172 345.4726 0001492  84.1237 275.9925 15.08853096 78575,6917.84,95.437,540.738,538.673,0.0
53543.0,STARLINK-4297,PAYLOAD,2024-01-16 06:56:29,15.08841064,0.0001906,53.2181,341.0103,83.9756,276.1453,4.9973e-05,5.07e-06,0.0,0 STARLINK-4297,1 53543U 22101S   24016.28923190  .00000507  00000-0  49973-4 0  9991,2 53543  53.2181 341.0103 0001906  83.9756 276.1453 15.08841064 78031,6917.877,95.437,541.061,538.424,0.0
53543.0,STARLINK-4297,PAYLOAD,2024-01-17 03:36:30,15.08845199,0.0001691,53.2191,337.1419,115.4781,244.6386,0.0001156,1.552e-05,0.0,0 STARLINK-4297,1 53543U 22101S   24017.15034742  .00001552  00000-0  11560-3 0  9995,2 53543  53.2191 337.1419 0001691 115.4781 244.6386 15.08845199 78856,6917.864,95.437,540.899,538.56,0.0
53543.0,STARLINK-4297,PAYLOAD,2024-01-18 03:27:17,15.08841638,0.0001657,53.2176,332.6878,97.2757,262.8423,2.6785e-05,1.38e-06,0.0,0 STARLINK-4297,1 53543U 22101S   24018.14395230  .00000138  00000-0  26785-4 0  9992,2 53543  53.2176 332.6878 0001657  97.2757 262.8423 15.08841638 78319,6917.875,95.437,540.887,538.594,0.0
53543.0,STARLINK-4297,PAYLOAD,2024-01-19 03:18:04,15.08823141,0.0001729,53.2192,328.2256,109.5211,250.5968,0.00036714,5.557e-05,0.0,0 STARLINK-4297,1 53543U 22101S   24019.13755536  .00005557  00000-0  36714-3 0  9993,2 53543  53.2192 328.2256 0001729 109.5211 250.5968 15.08823141 78463,6917.932,95.439,540.993,538.601,0.0
53543.0,STARLINK-4297,PAYLOAD,2024-01-19 06:28:51,15.08807841,0.0001924,53.219,327.6266,105.4298,254.6907,0.00064376,9.963e-05,0.0,0 STARLINK-4297,1 53543U 22101S   24019.27004122  .00009963  00000-0  64376-3 0  9996,2 53543  53.2190 327.6266 0001924 105.4298 254.6907 15.08807841 78481,6917.979,95.44,541.175,538.513,0.0
53543.0,STARLINK-4297,PAYLOAD,2024-01-19 20:47:19,15.08839659,0.00018,53.2186,324.9493,115.7029,244.4149,4.3907e-05,4.11e-06,0.0,0 STARLINK-4297,1 53543U 22101S   24019.86619385  .00000411  00000-0  43907-4 0  9991,2 53543  53.2186 324.9493 0001800 115.7029 244.4149 15.08839659 79261,6917.881,95.438,540.992,538.501,0.0
53543.0,STARLINK-4297,PAYLOAD,2024-01-20 03:08:51,15.08844319,0.0001566,53.2183,323.7595,105.376,254.7405,0.00011529,1.548e-05,0.0,0 STARLINK-4297,1 53543U 22101S   24020.13114904  .00001548  00000-0  11529-3 0  9996,2 53543  53.2183 323.7595 0001566 105.3760 254.7405 15.08844319 78610,6917.867,95.437,540.816,538.649,0.0
53543.0,STARLINK-4297,PAYLOAD,2024-01-21 01:24:15,15.08839749,0.000149,53.2179,319.6,101.1703,258.9457,6.6416e-06,-1.82e-06,0.0,0 STARLINK-4297,1 53543U 22101S   24021.05851787 -.00000182  00000-0  66416-5 0  9996,2 53543  53.2179 319.6000 0001490 101.1703 258.9457 15.08839749 78756,6917.881,95.438,540.777,538.715,0.0
53543.0,STARLINK-4297,PAYLOAD,2024-01-22 02:50:25,15.08847125,0.0001397,53.2178,314.8451,82.8972,277.2179,0.00012488,1.7e-05,0.0,0 STARLINK-4297,1 53543U 22101S   24022.11835352  .00001700  00000-0  12488-3 0  9998,2 53543  53.2178 314.8451 0001397  82.8972 277.2179 15.08847125 78911,6917.859,95.437,540.69,538.757,0.0
53543.0,STARLINK-4297,PAYLOAD,2024-01-23 02:41:13,15.08844375,0.0001414,53.2179,310.3838,79.9177,280.1975,0.00011593,1.558e-05,0.0,0 STARLINK-4297,1 53543U 22101S   24023.11195613  .00001558  00000-0  11593-3 0  9995,2 53543  53.2179 310.3838 0001414  79.9177 280.1975 15.08844375 79064,6917.867,95.437,540.71,538.754,0.0
53543.0,STARLINK-4297,PAYLOAD,2024-01-24 00:56:36,15.088387,0.0001481,53.2171,306.2225,70.4985,289.6167,0.00022468,3.289e-05,0.0,0 STARLINK-4297,1 53543U 22101S   24024.03931605  .00003289  00000-0  22468-3 0  9992,2 53543  53.2171 306.2225 0001481  70.4985 289.6167 15.08838700 79205,6917.884,95.438,540.774,538.725,0.0
53543.0,STARLINK-4297,PAYLOAD,2024-01-25 00:47:24,15.08838542,0.0001444,53.2179,301.7599,88.828,271.2878,1.8903e-06,-2.58e-06,0.0,0 STARLINK-4297,1 53543U 22101S   24025.03292301 -.00000258  00000-0  18903-5 0  9991,2 53543  53.2179 301.7599 0001444  88.8280 271.2878 15.08838542 79353,6917.885,95.438,540.749,538.751,0.0
53543.0,STARLINK-4297,PAYLOAD,2024-01-25 23:02:48,15.08844773,0.0001407,53.2185,297.5941,92.7794,267.336,2.1902e-05,6.1e-07,0.0,0 STARLINK-4297,1 53543U 22101S   24025.96028683  .00000061  00000-0  21902-4 0  9996,2 53543  53.2185 297.5941 0001407  92.7794 267.3360 15.08844773 80184,6917.866,95.437,540.704,538.757,0.0
53543.0,STARLINK-4297,PAYLOAD,2024-01-26 00:38:12,15.08839861,0.0001686,53.2178,297.2975,92.91,267.2085,0.00014817,2.071e-05,0.0,0 STARLINK-4297,1 53543U 22101S   24026.02652797  .00002071  00000-0  14817-3 0  9992,2 53543  53.2178 297.2975 0001686  92.9100 267.2085 15.08839861 80198,6917.881,95.438,540.912,538.579,0.0
53543.0,STARLINK-4297,PAYLOAD,2024-01-27 00:28:57,15.0884379,0.0001758,53.2189,292.8384,113.118,246.9997,0.00048184,7.39e-05,0.0,0 STARLINK-4297,1 53543U 22101S   24027.02011508  .00007390  00000-0  48184-3 0  9995,2 53543  53.2189 292.8384 0001758 113.1180 246.9997 15.08843790 79650,6917.869,95.437,540.95,538.518,0.0
53543.0,STARLINK-4297,PAYLOAD,2024-01-27 17:58:13,15.08851296,0.0001375,53.2178,289.5681,98.3695,261.7453,4.1962e-05,3.8e-06,0.0,0 STARLINK-4297,1 53543U 22101S   24027.74876612  .00000380  00000-0  41962-4 0  9999,2 53543  53.2178 289.5681 0001375  98.3695 261.7453 15.08851296 79765,6917.846,95.437,540.662,538.76,0.0
53543.0,STARLINK-4297,PAYLOAD,2024-01-27 21:08:59,15.08847197,0.0001271,53.2168,288.9667,90.0305,270.0833,-2.7919e-06,-3.32e-06,0.0,0 STARLINK-4297,1 53543U 22101S   24027.88124764 -.00000332  00000-0 -27919-5 0  9994,2 53543  53.2168 288.9667 0001271  90.0305 270.0833 15.08847197 80473,6917.858,95.437,540.603,538.844,0.0
